TIANMU-1 07             
1 57399U 23101A   26065.57454230  .00008352  00000+0  29795-3 0  9991
2 57399  97.2728 118.5929 0004609 142.4105 217.7458 15.29118809145964
STARLINK-31956          
1 59930U 24106J   26067.18859722  .00004487  00000+0  17240-3 0  9991
2 59930  43.0006 340.9670 0000902 260.5874  99.4876 15.27591276100293
