[{"OBJECT_NAME":"TIANMU-1 07","OBJECT_ID":"2023-101A","EPOCH":"2026-03-06T13:47:20.454720","MEAN_MOTION":15.29118809,"ECCENTRICITY":0.00046097,"INCLINATION":97.2728,"RA_OF_ASC_NODE":118.5929,"ARG_OF_PERICENTER":142.4105,"MEAN_ANOMALY":217.7458,"EPHEMERIS_TYPE":0,"CLASSIFICATION_TYPE":"U","NORAD_CAT_ID":57399,"ELEMENT_SET_NO":999,"REV_AT_EPOCH":14596,"BSTAR":0.00029794732,"MEAN_MOTION_DOT":8.352e-5,"MEAN_MOTION_DDOT":0},{"OBJECT_NAME":"STARLINK-31956","OBJECT_ID":"2024-106J","EPOCH":"2026-03-08T04:31:34.799808","MEAN_MOTION":15.27591276,"ECCENTRICITY":9.028e-5,"INCLINATION":43.0006,"RA_OF_ASC_NODE":340.967,"ARG_OF_PERICENTER":260.5874,"MEAN_ANOMALY":99.4876,"EPHEMERIS_TYPE":0,"CLASSIFICATION_TYPE":"U","NORAD_CAT_ID":59930,"ELEMENT_SET_NO":999,"REV_AT_EPOCH":10029,"BSTAR":0.00017239806,"MEAN_MOTION_DOT":4.487e-5,"MEAN_MOTION_DDOT":0}]
